start=new Date('2022-06-02T00:00:00.000Z').valueOf();
sats=[{"COUNTRY_CODE":"US","MEAN_ANOMALY":"304.6814","MEAN_ELEMENT_THEORY":"SGP4","ELEMENT_SET_NO":"999","NORAD_CAT_ID":"47358","TLE_LINE1":"1 47358U 21005K   22152.55095614  .00003868  00000-0  27849-3 0  9990","MEAN_MOTION_DDOT":"0.0000000000000","ECCENTRICITY":"0.00017670","GP_ID":"205124524","SEMIMAJOR_AXIS":"6925.366","BSTAR":"0.00027849000000","PERIOD":"95.593","APOAPSIS":"548.455","CLASSIFICATION_TYPE":"U","PERIAPSIS":"546.008","OBJECT_TYPE":"PAYLOAD","TLE_LINE2":"2 47358  53.0562  93.8450 0001767  55.4342 304.6814 15.06394196 75892","ARG_OF_PERICENTER":"55.4342","OBJECT_NAME":"STARLINK-2055","EPOCH":"2022-06-01T13:13:22.610496","REF_FRAME":"TEME","EPHEMERIS_TYPE":"0","REV_AT_EPOCH":"7589","OBJECT_ID":"2021-005K","LAUNCH_DATE":"2021-01-20","SITE":"AFETR","DECAY_DATE":null,"INCLINATION":"53.0562","RCS_SIZE":"LARGE","TIME_SYSTEM":"UTC","FILE":"3476255","MEAN_MOTION":"15.06394196","MEAN_MOTION_DOT":"0.00003868","CENTER_NAME":"EARTH","RA_OF_ASC_NODE":"93.8450"},{"SITE":"AFETR","DECAY_DATE":null,"REF_FRAME":"TEME","EPHEMERIS_TYPE":"0","EPOCH":"2022-06-01T21:26:19.599360","OBJECT_NAME":"STARLINK-2069","LAUNCH_DATE":"2021-01-20","REV_AT_EPOCH":"7559","OBJECT_ID":"2021-005L","MEAN_MOTION_DOT":"0.00001908","CENTER_NAME":"EARTH","RA_OF_ASC_NODE":"117.2911","TIME_SYSTEM":"UTC","RCS_SIZE":"LARGE","INCLINATION":"53.0542","FILE":"3476255","MEAN_MOTION":"15.06395049","TLE_LINE1":"1 47359U 21005L   22152.89328240  .00001908  00000-0  14696-3 0  9991","MEAN_MOTION_DDOT":"0.0000000000000","ECCENTRICITY":"0.00017340","SEMIMAJOR_AXIS":"6925.364","GP_ID":"205124777","COUNTRY_CODE":"US","NORAD_CAT_ID":"47359","ELEMENT_SET_NO":"999","MEAN_ELEMENT_THEORY":"SGP4","MEAN_ANOMALY":"307.8696","OBJECT_TYPE":"PAYLOAD","ARG_OF_PERICENTER":"52.2450","TLE_LINE2":"2 47359  53.0542 117.2911 0001734  52.2450 307.8696 15.06395049 75591","PERIOD":"95.592","BSTAR":"0.00014696000000","PERIAPSIS":"546.028","APOAPSIS":"548.430","CLASSIFICATION_TYPE":"U"},{"EPOCH":"2022-06-01T05:40:13.624320","REF_FRAME":"TEME","EPHEMERIS_TYPE":"0","OBJECT_NAME":"STARLINK-2070","REV_AT_EPOCH":"7592","OBJECT_ID":"2021-005M","LAUNCH_DATE":"2021-01-20","SITE":"AFETR","DECAY_DATE":null,"INCLINATION":"53.0560","TIME_SYSTEM":"UTC","RCS_SIZE":"LARGE","MEAN_MOTION":"15.06383277","FILE":"3476255","MEAN_MOTION_DOT":"0.00000894","CENTER_NAME":"EARTH","RA_OF_ASC_NODE":"90.2626","COUNTRY_CODE":"US","ELEMENT_SET_NO":"999","NORAD_CAT_ID":"47360","MEAN_ANOMALY":"304.5346","MEAN_ELEMENT_THEORY":"SGP4","TLE_LINE1":"1 47360U 21005M   22152.23626880  .00000894  00000-0  78972-4 0  9993","ECCENTRICITY":"0.00021900","MEAN_MOTION_DDOT":"0.0000000000000","SEMIMAJOR_AXIS":"6925.400","GP_ID":"205125503","PERIOD":"95.593","BSTAR":"0.00007897200000","PERIAPSIS":"545.748","APOAPSIS":"548.781","CLASSIFICATION_TYPE":"U","OBJECT_TYPE":"PAYLOAD","ARG_OF_PERICENTER":"55.5850","TLE_LINE2":"2 47360  53.0560  90.2626 0002190  55.5850 304.5346 15.06383277 75926"},{"ECCENTRICITY":"0.00019480","TLE_LINE1":"1 47361U 21005N   22152.55833587  .00002943  00000-0  21649-3 0  9998","MEAN_MOTION_DDOT":"0.0000000000000","GP_ID":"205124275","SEMIMAJOR_AXIS":"6925.394","COUNTRY_CODE":"US","MEAN_ELEMENT_THEORY":"SGP4","MEAN_ANOMALY":"301.8328","NORAD_CAT_ID":"47361","ELEMENT_SET_NO":"999","OBJECT_TYPE":"PAYLOAD","TLE_LINE2":"2 47361  53.0568  93.8082 0001948  58.2850 301.8328 15.06385328 75895","ARG_OF_PERICENTER":"58.2850","BSTAR":"0.00021649000000","PERIOD":"95.593","CLASSIFICATION_TYPE":"U","APOAPSIS":"548.608","PERIAPSIS":"545.909","SITE":"AFETR","DECAY_DATE":null,"OBJECT_NAME":"STARLINK-2071","REF_FRAME":"TEME","EPHEMERIS_TYPE":"0","EPOCH":"2022-06-01T13:24:00.219168","LAUNCH_DATE":"2021-01-20","REV_AT_EPOCH":"7589","OBJECT_ID":"2021-005N","CENTER_NAME":"EARTH","MEAN_MOTION_DOT":"0.00002943","RA_OF_ASC_NODE":"93.8082","TIME_SYSTEM":"UTC","RCS_SIZE":"LARGE","INCLINATION":"53.0568","MEAN_MOTION":"15.06385328","FILE":"3476255"},{"SITE":"AFETR","DECAY_DATE":null,"OBJECT_NAME":"STARLINK-2076","REF_FRAME":"TEME","EPHEMERIS_TYPE":"0","EPOCH":"2022-06-01T08:06:49.833792","LAUNCH_DATE":"2021-01-20","REV_AT_EPOCH":"7544","OBJECT_ID":"2021-005P","MEAN_MOTION_DOT":"-0.00000128","CENTER_NAME":"EARTH","RA_OF_ASC_NODE":"124.7916","TIME_SYSTEM":"UTC","RCS_SIZE":"LARGE","INCLINATION":"53.0553","MEAN_MOTION":"15.06404996","FILE":"3476255","ECCENTRICITY":"0.00019720","TLE_LINE1":"1 47362U 21005P   22152.33807678 -.00000128  00000-0  10299-4 0  9991","MEAN_MOTION_DDOT":"0.0000000000000","SEMIMAJOR_AXIS":"6925.333","GP_ID":"205124026","COUNTRY_CODE":"US","MEAN_ELEMENT_THEORY":"SGP4","MEAN_ANOMALY":"297.9941","NORAD_CAT_ID":"47362","ELEMENT_SET_NO":"999","OBJECT_TYPE":"PAYLOAD","TLE_LINE2":"2 47362  53.0553 124.7916 0001972  62.1248 297.9941 15.06404996 75442","ARG_OF_PERICENTER":"62.1248","BSTAR":"0.00001029900000","PERIOD":"95.592","CLASSIFICATION_TYPE":"U","APOAPSIS":"548.564","PERIAPSIS":"545.833"},{"DECAY_DATE":null,"SITE":"AFETR","REV_AT_EPOCH":"7553","OBJECT_ID":"2021-005Q","LAUNCH_DATE":"2021-01-20","EPOCH":"2022-06-01T22:32:00.296448","EPHEMERIS_TYPE":"0","REF_FRAME":"TEME","OBJECT_NAME":"STARLINK-2077","RA_OF_ASC_NODE":"122.0816","CENTER_NAME":"EARTH","MEAN_MOTION_DOT":"-0.00001162","MEAN_MOTION":"15.06399310","FILE":"3476255","INCLINATION":"53.0555","TIME_SYSTEM":"UTC","RCS_SIZE":"LARGE","GP_ID":"205125277","SEMIMAJOR_AXIS":"6925.351","ECCENTRICITY":"0.00022300","TLE_LINE1":"1 47363U 21005Q   22152.93889232 -.00001162  00000-0 -59133-4 0  9994","MEAN_MOTION_DDOT":"0.0000000000000","ELEMENT_SET_NO":"999","NORAD_CAT_ID":"47363","MEAN_ANOMALY":"309.3978","MEAN_ELEMENT_THEORY":"SGP4","COUNTRY_CODE":"US","ARG_OF_PERICENTER":"50.7209","TLE_LINE2":"2 47363  53.0555 122.0816 0002230  50.7209 309.3978 15.06399310 75534","OBJECT_TYPE":"PAYLOAD","PERIAPSIS":"545.671","CLASSIFICATION_TYPE":"U","APOAPSIS":"548.760","PERIOD":"95.592","BSTAR":"-0.00005913300000"},{"APOAPSIS":"333.166","CLASSIFICATION_TYPE":"U","PERIAPSIS":"313.781","BSTAR":"0.00033084000000","PERIOD":"90.997","TLE_LINE2":"2 47365  53.0304 267.0360 0014463 338.0965  21.9437 15.82465338 78532","ARG_OF_PERICENTER":"338.0965","OBJECT_TYPE":"PAYLOAD","MEAN_ANOMALY":"21.9437","MEAN_ELEMENT_THEORY":"SGP4","ELEMENT_SET_NO":"999","NORAD_CAT_ID":"47365","COUNTRY_CODE":"US","GP_ID":"205125004","SEMIMAJOR_AXIS":"6701.608","MEAN_MOTION_DDOT":"0.0000000000000","TLE_LINE1":"1 47365U 21005S   22152.88951021  .00070691  00000-0  33084-3 0  9993","ECCENTRICITY":"0.00144630","MEAN_MOTION":"15.82465338","FILE":"3476255","INCLINATION":"53.0304","RCS_SIZE":"LARGE","TIME_SYSTEM":"UTC","RA_OF_ASC_NODE":"267.0360","MEAN_MOTION_DOT":"0.00070691","CENTER_NAME":"EARTH","REV_AT_EPOCH":"7853","OBJECT_ID":"2021-005S","LAUNCH_DATE":"2021-01-20","OBJECT_NAME":"STARLINK-2080","EPOCH":"2022-06-01T21:20:53.682144","REF_FRAME":"TEME","EPHEMERIS_TYPE":"0","DECAY_DATE":null,"SITE":"AFETR"},{"SEMIMAJOR_AXIS":"6925.372","GP_ID":"205123777","ECCENTRICITY":"0.00020060","TLE_LINE1":"1 47366U 21005T   22152.63296614 -.00000182  00000-0  67281-5 0  9994","MEAN_MOTION_DDOT":"0.0000000000000","NORAD_CAT_ID":"47366","ELEMENT_SET_NO":"999","MEAN_ELEMENT_THEORY":"SGP4","MEAN_ANOMALY":"304.2704","COUNTRY_CODE":"US","ARG_OF_PERICENTER":"55.8474","TLE_LINE2":"2 47366  53.0535 123.4706 0002006  55.8474 304.2704 15.06392225 75482","OBJECT_TYPE":"PAYLOAD","PERIAPSIS":"545.848","APOAPSIS":"548.627","CLASSIFICATION_TYPE":"U","PERIOD":"95.593","BSTAR":"0.00000672810000","DECAY_DATE":null,"SITE":"AFETR","LAUNCH_DATE":"2021-01-20","REV_AT_EPOCH":"7548","OBJECT_ID":"2021-005T","EPHEMERIS_TYPE":"0","REF_FRAME":"TEME","EPOCH":"2022-06-01T15:11:28.274496","OBJECT_NAME":"STARLINK-2081","RA_OF_ASC_NODE":"123.4706","CENTER_NAME":"EARTH","MEAN_MOTION_DOT":"-0.00000182","MEAN_MOTION":"15.06392225","FILE":"3476255","TIME_SYSTEM":"UTC","RCS_SIZE":"LARGE","INCLINATION":"53.0535"},{"RA_OF_ASC_NODE":"123.3558","MEAN_MOTION_DOT":"-0.00000253","CENTER_NAME":"EARTH","FILE":"3476255","MEAN_MOTION":"15.06396671","TIME_SYSTEM":"UTC","RCS_SIZE":"LARGE","INCLINATION":"53.0521","DECAY_DATE":null,"SITE":"AFETR","LAUNCH_DATE":"2021-01-20","REV_AT_EPOCH":"7549","OBJECT_ID":"2021-005U","REF_FRAME":"TEME","EPHEMERIS_TYPE":"0","EPOCH":"2022-06-01T15:48:36.666144","OBJECT_NAME":"STARLINK-2082","ARG_OF_PERICENTER":"42.4814","TLE_LINE2":"2 47367  53.0521 123.3558 0002256  42.4814 317.6350 15.06396671 75494","OBJECT_TYPE":"PAYLOAD","PERIAPSIS":"545.661","APOAPSIS":"548.786","CLASSIFICATION_TYPE":"U","PERIOD":"95.592","BSTAR":"0.00000196210000","SEMIMAJOR_AXIS":"6925.359","GP_ID":"205124525","TLE_LINE1":"1 47367U 21005U   22152.65875771 -.00000253  00000-0  19621-5 0  9998","MEAN_MOTION_DDOT":"0.0000000000000","ECCENTRICITY":"0.00022560","NORAD_CAT_ID":"47367","ELEMENT_SET_NO":"999","MEAN_ELEMENT_THEORY":"SGP4","MEAN_ANOMALY":"317.6350","COUNTRY_CODE":"US"},{"CENTER_NAME":"EARTH","MEAN_MOTION_DOT":"0.00001501","RA_OF_ASC_NODE":"122.1842","RCS_SIZE":"LARGE","TIME_SYSTEM":"UTC","INCLINATION":"53.0545","FILE":"3476255","MEAN_MOTION":"15.06394912","SITE":"AFETR","DECAY_DATE":null,"OBJECT_NAME":"STARLINK-2084","REF_FRAME":"TEME","EPHEMERIS_TYPE":"0","EPOCH":"2022-06-01T22:00:09.745344","LAUNCH_DATE":"2021-01-20","REV_AT_EPOCH":"7553","OBJECT_ID":"2021-005V","OBJECT_TYPE":"PAYLOAD","TLE_LINE2":"2 47368  53.0545 122.1842 0001802  58.3141 301.8024 15.06394912 75533","ARG_OF_PERICENTER":"58.3141","BSTAR":"0.00011967000000","PERIOD":"95.592","APOAPSIS":"548.477","CLASSIFICATION_TYPE":"U","PERIAPSIS":"545.981","ECCENTRICITY":"0.00018020","TLE_LINE1":"1 47368U 21005V   22152.91677946  .00001501  00000-0  11967-3 0  9991","MEAN_MOTION_DDOT":"0.0000000000000","GP_ID":"205124778","SEMIMAJOR_AXIS":"6925.364","COUNTRY_CODE":"US","MEAN_ELEMENT_THEORY":"SGP4","MEAN_ANOMALY":"301.8024","NORAD_CAT_ID":"47368","ELEMENT_SET_NO":"999"}];
